TIANMU-1 21             
1 58662U 23208C   26167.13947926  .00008190  00000+0  24300-3 0  9994
2 58662  97.4510 286.7437 0006027 328.2160  31.8719 15.35061665137401
TIANMU-1 22             
1 58663U 23208D   26167.22309498  .00006155  00000+0  20779-3 0  9996
2 58663  97.4506 283.4543 0003325   7.6968 352.4323 15.31046882137189
TIANMU-1 15             
1 58700U 24004A   26167.18122389  .00004805  00000+0  18399-3 0  9995
2 58700  97.4662 353.3712 0006819   5.9769 354.1549 15.27015263135620
TIANMU-1 16             
1 58701U 24004B   26167.17027934  .00004715  00000+0  18211-3 0  9998
2 58701  97.4608 352.5983 0005948  11.2955 348.8416 15.26740073135627
TIANMU-1 17             
1 58702U 24004C   26167.22127328  .00004543  00000+0  17558-3 0  9995
2 58702  97.4637 353.1338 0005630  17.6363 342.5070 15.26739513135626
TIANMU-1 18             
1 58703U 24004D   26167.19782608  .00004551  00000+0  17458-3 0  9998
2 58703  97.4655 353.3652 0004140  18.7357 341.4033 15.26997033135628
INSAT-3DS               
1 58990U 24033A   26167.05949029 -.00000156  00000+0  00000+0 0  9994
2 58990   0.0433 115.2465 0000985 319.0342 293.5710  1.00271416 47056
METEOR-M2 4             
1 59051U 24039A   26167.19864465 -.00000004  00000+0  17770-4 0  9993
2 59051  98.7010 126.5091 0007227 163.7378 196.4033 14.22429426119120
GOES 19                 
1 60133U 24119A   26167.22708455 -.00000249  00000+0  00000+0 0  9999
2 60133   0.0041 114.8136 0000424  73.1428  83.1050  1.00271553  6950
MTG-S1                  
1 64723U 25143A   26167.11381704 -.00000031  00000+0  00000+0 0  9997
2 64723   0.6041 338.7016 0000989  11.4839 311.7067  1.00271993  3409
METOP-SGA1              
1 65159U 25172A   26167.15332898  .00000049  00000+0  42000-4 0  9996
2 65159  98.6644 226.8998 0000902  93.8213 266.3067 14.21509720 43644
FENGYUN 3H              
1 65815U 25219A   26167.12499580  .00000036  00000+0  37257-4 0  9990
2 65815  98.6768 107.9147 0001588  77.1402 282.9952 14.19920298 37230
